BEIDOU 7                
1 37256U 10068A   20242.11472715 -.00000195  00000-0  00000+0 0  9991
2 37256  51.3583 297.4731 0082386 213.9095 346.0985  1.00290134 35552
EUTELSAT KA-SAT 9A      
1 37258U 10069A   20241.79645163  .00000039  00000-0  00000-0 0  9993
2 37258   0.0306 298.0831 0004279 149.4782 185.6537  1.00273028 22770
HISPASAT 30W-5          
1 37264U 10070A   20242.40891722 -.00000239  00000-0  00000+0 0  9997
2 37264   0.0195 128.9350 0005925  30.2045 296.1549  1.00272453 35437
KOREASAT 6              
1 37265U 10070B   20241.93549275 -.00000385  00000-0  00000-0 0  9991
2 37265   0.0182 110.3173 0001270  66.6773 253.3849  1.00271554 35521
BEIDOU 8                
1 37384U 11013A   20241.89077385 -.00000168  00000-0  10000-3 0  9997
2 37384  59.3701  60.8609 0050047 201.0258 154.6233  1.00286230 34435
INTELSAT NEW DAWN       
1 37392U 11016A   20241.56002961  .00000133  00000-0  00000+0 0  9997
2 37392   0.0250 210.1827 0000630 301.8726  59.5797  1.00274041 34277
YAHSAT 1A               
1 37393U 11016B   20242.22341175  .00000078  00000-0  00000+0 0  9993
2 37393   0.0259 105.7099 0001823   2.8288   2.2587  1.00269635 34324
SBIRS GEO-1 (USA 230)   
1 37481U 11019A   20242.14093321 -.00000028  00000-0  00000+0 0  9998
2 37481   1.9902 346.4959 0002326 170.2825 297.9576  1.00272391 34102
TELSTAR 14R             
1 37602U 11021A   20242.40228729 -.00000303  00000-0  00000+0 0  9993
2 37602   0.0634 296.6205 0001712 176.9923 306.2430  1.00270608 34550
GSAT-8                  
1 37605U 11022A   20242.06695719  .00000061  00000-0  00000+0 0  9996
2 37605   0.0111 166.6951 0003346  80.9322 169.2801  1.00272016 34003
ST-2                    
1 37606U 11022B   20242.07349988 -.00000235  00000-0  00000+0 0  9996
2 37606   0.0141 148.8260 0001700  17.7036 285.6495  1.00273625 34014
CHINASAT 10 (ZX 10)     
1 37677U 11026A   20242.50836615 -.00000375  00000-0  00000+0 0  9999
2 37677   0.0592 261.1948 0005290 269.5999 100.8215  1.00267190 33722
TIANLIAN 1-02           
1 37737U 11032A   20241.87460214 -.00000040  00000-0  00000-0 0  9990
2 37737   2.8823  75.1115 0015884  96.6448 291.5889  1.00273339 33483
GSAT-12                 
1 37746U 11034A   20242.52788860 -.00000189  00000-0  00000+0 0  9998
2 37746   0.1011 279.2711 0010085 180.9313 151.0074  1.00272923 33729
SES-3                   
1 37748U 11035A   20242.49666855 -.00000126  00000-0  00000+0 0  9997
2 37748   0.0621 297.8808 0002904 215.5664 260.5029  1.00272598 33460
KAZSAT-2                
1 37749U 11035B   20242.14494606 -.00000221  00000-0  00000+0 0  9999
2 37749   0.0191 149.4750 0001653 107.6364 219.3640  1.00273528 33330
BEIDOU 9                
1 37763U 11038A   20242.28013091 -.00000119  00000-0  10000-3 0  9999
2 37763  54.4520 184.7066 0073915 225.5989 124.3311  1.00279457 33405
ASTRA 1N                
1 37775U 11041A   20242.42063365  .00000096  00000-0  00000+0 0  9999
2 37775   0.0446   4.3129 0003357  98.1422  46.2386  1.00269914 33162
BSAT-3C (JCSAT-110R)    
1 37776U 11041B   20242.00634130 -.00000374  00000-0  00000+0 0  9998
2 37776   0.0638 281.9732 0000409 298.3235 229.5970  1.00271527 33281
PAKSAT-1R               
1 37779U 11042A   20242.28521616  .00000130  00000-0  00000+0 0  9995
2 37779   0.0043 308.4533 0004131 158.2918  11.8173  1.00274200 33048
CHINASAT 1A (ZX 1A)     
1 37804U 19001A   20242.55743839 -.00000361  00000-0  00000+0 0  9997
2 37804   0.0324 293.2946 0000371 303.4301  72.0204  1.00271135 32834
COSMOS 2473             
1 37806U 11048A   20242.23452050 -.00000136  00000-0  00000+0 0  9999
2 37806   0.2198 100.9819 0003455  45.6952 261.5851  1.00268034 32830
SES-2                   
1 37809U 11049A   20242.48687008 -.00000219  00000-0  00000+0 0  9995
2 37809   0.0663 289.7637 0002849 224.2915 272.3434  1.00270479 32767
ARABSAT-5C              
1 37810U 11049B   20242.21567119  .00000100  00000-0  00000+0 0  9996
2 37810   0.0626 358.3580 0005139 171.7486 265.4001  1.00270716 32679
EUTELSAT 7 WEST A       
1 37816U 11051A   20242.12627757 -.00000084  00000-0  00000+0 0  9992
2 37816   0.0820  52.9144 0007556 113.6953 209.3232  1.00271576 32738
QUETZSAT 1              
1 37826U 11054A   20242.39949573 -.00000265  00000-0  00000+0 0  9999
2 37826   0.0649 294.3557 0003052 216.3072 254.2020  1.00266019 32862
INTELSAT 18 (IS-18)     
1 37834U 11056A   20242.53303694  .00000029  00000-0  00000+0 0  9991
2 37834   0.0175 128.4868 0003014  27.4811 194.1037  1.00271398 32627
EUTELSAT 16A            
1 37836U 11057A   20242.11646521  .00000080  00000-0  00000+0 0  9994
2 37836   0.0680   4.4271 0004660 152.7319 238.5460  1.00270179 32555
VIASAT-1                
1 37843U 11059A   20242.48854010 -.00000048  00000-0  00000+0 0  9993
2 37843   0.0169 134.9308 0002683  24.2315 239.7403  1.00274671 33043
ASIASAT 7               
1 37933U 11069A   20242.54701890 -.00000358  00000-0  00000+0 0  9992
2 37933   0.0113 138.8147 0001952 337.7252 164.0710  1.00274304 32229
BEIDOU 10               
1 37948U 11073A   20242.11230353 -.00000138  00000-0  10000-3 0  9998
2 37948  51.4535 297.0744 0071068 214.4353 322.7153  1.00279650 32168
LUCH 5A                 
1 37951U 11074B   20242.59587950 -.00000072  00000-0  00000+0 0  9995
2 37951   3.4242 112.8471 0003983  18.9676 227.9083  1.00270412 31952
NIGCOMSAT 1R            
1 38014U 11077A   20242.13622248  .00000122  00000-0  00000+0 0  9994
2 38014   0.0186 113.7146 0002964  16.8080 298.8058  1.00269477 31796
FENGYUN 2F              
1 38049U 12002A   20241.95037671 -.00000381  00000-0  00000-0 0  9999
2 38049   2.2262  83.3478 0000690  77.7415 270.9229  1.00269652 31645
WGS F4 (USA 233)        
1 38070U 12003A   20242.07358712 -.00000238  00000-0  00000+0 0  9990
2 38070   0.0083 136.3319 0000555 343.0558 333.2440  1.00271869 31489
SES-4                   
1 38087U 12007A   20241.90801347 -.00000191  00000-0  00000-0 0  9999
2 38087   0.0164  81.6606 0002344  76.0821 124.7213  1.00272559 31008
BEIDOU 11               
1 38091U 12008A   20242.13945020  .00000034  00000-0  00000+0 0  9992
2 38091   1.6270  68.4987 0001613 274.5663 103.5876  1.00272967 31249
MUOS-1                  
1 38093U 12009A   20242.12554035 -.00000148  00000-0  00000+0 0  9993
2 38093   2.5309  10.1762 0050797   1.5864 271.2004  1.00270566 31213
INTELSAT 22 (IS-22)     
1 38098U 12011A   20242.07035939 -.00000082  00000-0  00000+0 0  9999
2 38098   0.0209 111.7022 0002742  66.2401 257.2224  1.00273011 30810
APSTAR 7                
1 38107U 12013A   20241.82549315 -.00000124  00000-0  00000+0 0  9999
2 38107   0.0342 119.3700 0002280  36.9374 194.8498  1.00271148 30926
YAHSAT 1B               
1 38245U 12016A   20242.02532374  .00000103  00000-0  00000+0 0  9991
2 38245   0.0115 119.2114 0001752   5.0302 270.1637  1.00269392 30680
AEHF-2 (USA 235)        
1 38254U 12019A   20242.08799339 -.00000298  00000-0  00000+0 0  9992
2 38254   2.1134  49.1988 0006217  83.4453 169.2341  1.00275121 30432
JCSAT-13                
1 38331U 12023A   20242.04285458 -.00000379  00000-0  00000+0 0  9991
2 38331   0.0093 141.5981 0002326   8.4436 327.0872  1.00271826 30334
VINASAT-2               
1 38332U 12023B   20242.51298963 -.00000352  00000-0  00000+0 0  9990
2 38332   0.0524 295.1656 0002169 215.3141 144.1967  1.00273084 30382
NIMIQ 6                 
1 38342U 12026A   20241.53534185 -.00000196  00000-0  00000+0 0  9990
2 38342   0.0613 289.4671 0002715 216.9341 292.4182  1.00271997 30355
CHINASAT 2A (ZX 2A)     
1 38352U 12028A   20241.93200331 -.00000315  00000-0  00000-0 0  9994
2 38352   0.0677 292.0938 0000729  31.8115  87.4328  1.00268068 30133
INTELSAT 19 (IS-19)     
1 38356U 12030A   20241.87372979 -.00000080  00000-0  00000+0 0  9990
2 38356   0.0177 117.9574 0003315  37.1767 302.9433  1.00271568 30275
ECHOSTAR 17             
1 38551U 12035A   20242.49454814 -.00000099  00000-0  00000+0 0  9990
2 38551   0.0085  98.1684 0002052  57.2670 253.6417  1.00269690 29898
METEOSAT-10 (MSG-3)     
1 38552U 12035B   20241.79645927  .00000041  00000-0  00000-0 0  9997
2 38552   1.3471 344.2729 0001920 137.3541 152.0211  1.00275037 29646
SES-5                   
1 38652U 12036A   20242.11646521  .00000010  00000-0  00000+0 0  9992
2 38652   0.0450  96.5909 0002234  49.6145 238.4648  1.00272222 29838
TIANLIAN 1-03           
1 38730U 12040A   20242.42046003  .00000101  00000-0  00000+0 0  9998
2 38730   0.3936 103.8274 0002599 301.3882 104.5428  1.00274777 29751
INTELSAT 20 (IS-20)     
1 38740U 12043A   20242.21785444 -.00000048  00000-0  00000+0 0  9999
2 38740   0.0191 136.8135 0001475  60.1129 287.8827  1.00271570 29598
HYLAS 2                 
1 38741U 12043B   20242.28521616  .00000131  00000-0  00000+0 0  9998
2 38741   0.0484 290.0065 0002021 211.5932 330.0294  1.00270893 29610
INTELSAT 21 (IS-21)     
1 38749U 12045A   20242.11615821 -.00000308  00000-0  00000+0 0  9999
2 38749   0.0105 119.6492 0002299  32.0085 169.9353  1.00272196 29398
ASTRA 2F                
1 38778U 12051A   20242.21785498  .00000126  00000-0  00000+0 0  9994
2 38778   0.0935 249.4443 0003665 302.3589 252.6915  1.00269454 29059
GSAT-10                 
1 38779U 12051B   20242.14433542 -.00000188  00000-0  00000+0 0  9996
2 38779   0.0743 284.7350 0000444 230.4016 317.6302  1.00272350 29055
INTELSAT 23 (IS-23)     
1 38867U 12057A   20242.40429372 -.00000308  00000-0  00000+0 0  9999
2 38867   0.0121 129.7564 0001911  16.1019 284.7533  1.00272117 28870
BEIDOU 16               
1 38953U 12059A   20242.08142552 -.00000198  00000-0  00000+0 0  9990
2 38953   1.2722  84.1050 0006252 265.8329 101.1444  1.00269702 28813
LUCH 5B                 
1 38977U 12061A   20242.34889704 -.00000156  00000-0  00000+0 0  9999
2 38977   5.8950  67.1659 0002951  68.9214 311.2761  1.00272382 28943
